KUIPER-00549            
1 69616U 26140AA  26186.72262537  .00028996  00000+0  78958-3 0  9991
2 69616  51.8805 309.1919 0007179 342.1175  17.9558 15.37244409  4082
KUIPER-00550            
1 69617U 26140AB  26187.16668981  .00062616  00000+0  18997-2 0  9997
2 69617  51.8806 307.2957 0007121  18.7631 157.2149 15.33493362  3392
KUIPER-00551            
1 69618U 26140AC  26186.76493687  .00020025  00000+0  53405-3 0  9994
2 69618  51.8790 308.7323 0012365 242.6084 117.3645 15.38064352  4098
KUIPER-00554            
1 69619U 26140AD  26186.76906092  .00035498  00000+0  94428-3 0  9994
2 69619  51.8788 308.7598 0011292 252.9936 106.9814 15.37828438  4092
KUIPER-00555            
1 69620U 26140AE  26186.83160746  .00027513  00000+0  73184-3 0  9997
2 69620  51.8819 308.4339 0011507 244.4226 115.5572 15.37959688  4107
KUIPER-00556            
1 69621U 26140AF  26186.83234364  .00027706  00000+0  73201-3 0  9990
2 69621  51.8807 308.4364 0012132 231.5483 128.4416 15.38156156  4100
KUIPER-00557            
1 69622U 26140AG  26186.70737668  .00034519  00000+0  93265-3 0  9994
2 69622  51.8815 309.0991 0009858 260.9301  99.0570 15.37376128  4082
KUIPER-00560            
1 69623U 26140AH  26186.77005161  .00022714  00000+0  59208-3 0  9991
2 69623  51.8792 308.7645 0008717 267.0865  92.9125 15.38722952  4095
KUIPER-00561            
1 69624U 26140AJ  26186.77203011  .00023775  00000+0  62316-3 0  9998
2 69624  51.8825 308.7846 0007956 268.7053  91.3023 15.38531824  4093
KUIPER-00564            
1 69625U 26140AK  26186.70338952  .00030884  00000+0  79695-3 0  9992
2 69625  51.8815 309.0731 0009437 257.3965 102.5968 15.38853108  4086
KUIPER-00567            
1 69626U 26140AL  26186.76529826  .00020387  00000+0  53912-3 0  9992
2 69626  51.8778 308.7331 0012899 232.5718 127.4096 15.38306824  4091
KUIPER-00573            
1 69627U 26140AM  26186.77558588  .00041835  00000+0  11308-2 0  9994
2 69627  51.8789 308.8014 0009342 248.1867 111.8126 15.37275666  4099
