{"fetched_at":"2026-07-06T18:35:12.836Z","source":"https://celestrak.org/NORAD/elements/gp.php?GROUP=kuiper&FORMAT=JSON","constellation":"kuiper","records":[{"OBJECT_NAME":"KUIPER-00549","OBJECT_ID":"2026-140AA","EPOCH":"2026-07-05T17:20:34.831968","CLASSIFICATION_TYPE":"U","MEAN_MOTION":15.37244409,"ECCENTRICITY":0.00071794,"INCLINATION":51.8805,"RA_OF_ASC_NODE":309.1919,"ARG_OF_PERICENTER":342.1175,"MEAN_ANOMALY":17.9558,"EPHEMERIS_TYPE":0,"NORAD_CAT_ID":69616,"ELEMENT_SET_NO":999,"REV_AT_EPOCH":408,"BSTAR":0.0007895816,"MEAN_MOTION_DOT":0.00028996,"MEAN_MOTION_DDOT":0},{"OBJECT_NAME":"KUIPER-00550","OBJECT_ID":"2026-140AB","EPOCH":"2026-07-06T04:00:01.999584","CLASSIFICATION_TYPE":"U","MEAN_MOTION":15.33493362,"ECCENTRICITY":0.0007121,"INCLINATION":51.8806,"RA_OF_ASC_NODE":307.2957,"ARG_OF_PERICENTER":18.7631,"MEAN_ANOMALY":157.2149,"EPHEMERIS_TYPE":0,"NORAD_CAT_ID":69617,"ELEMENT_SET_NO":999,"REV_AT_EPOCH":339,"BSTAR":0.0018997199,"MEAN_MOTION_DOT":0.00062616,"MEAN_MOTION_DDOT":0},{"OBJECT_NAME":"KUIPER-00551","OBJECT_ID":"2026-140AC","EPOCH":"2026-07-05T18:21:30.545568","CLASSIFICATION_TYPE":"U","MEAN_MOTION":15.38064352,"ECCENTRICITY":0.00123651,"INCLINATION":51.879,"RA_OF_ASC_NODE":308.7323,"ARG_OF_PERICENTER":242.6084,"MEAN_ANOMALY":117.3645,"EPHEMERIS_TYPE":0,"NORAD_CAT_ID":69618,"ELEMENT_SET_NO":999,"REV_AT_EPOCH":409,"BSTAR":0.00053404589,"MEAN_MOTION_DOT":0.00020025,"MEAN_MOTION_DDOT":0},{"OBJECT_NAME":"KUIPER-00554","OBJECT_ID":"2026-140AD","EPOCH":"2026-07-05T18:27:26.863488","CLASSIFICATION_TYPE":"U","MEAN_MOTION":15.37828438,"ECCENTRICITY":0.00112929,"INCLINATION":51.8788,"RA_OF_ASC_NODE":308.7598,"ARG_OF_PERICENTER":252.9936,"MEAN_ANOMALY":106.9814,"EPHEMERIS_TYPE":0,"NORAD_CAT_ID":69619,"ELEMENT_SET_NO":999,"REV_AT_EPOCH":409,"BSTAR":0.00094428036,"MEAN_MOTION_DOT":0.00035498,"MEAN_MOTION_DDOT":0},{"OBJECT_NAME":"KUIPER-00555","OBJECT_ID":"2026-140AE","EPOCH":"2026-07-05T19:57:30.884544","CLASSIFICATION_TYPE":"U","MEAN_MOTION":15.37959688,"ECCENTRICITY":0.0011507,"INCLINATION":51.8819,"RA_OF_ASC_NODE":308.4339,"ARG_OF_PERICENTER":244.4226,"MEAN_ANOMALY":115.5572,"EPHEMERIS_TYPE":0,"NORAD_CAT_ID":69620,"ELEMENT_SET_NO":999,"REV_AT_EPOCH":410,"BSTAR":0.0007318356,"MEAN_MOTION_DOT":0.00027513,"MEAN_MOTION_DDOT":0},{"OBJECT_NAME":"KUIPER-00556","OBJECT_ID":"2026-140AF","EPOCH":"2026-07-05T19:58:34.490496","CLASSIFICATION_TYPE":"U","MEAN_MOTION":15.38156156,"ECCENTRICITY":0.00121324,"INCLINATION":51.8807,"RA_OF_ASC_NODE":308.4364,"ARG_OF_PERICENTER":231.5483,"MEAN_ANOMALY":128.4416,"EPHEMERIS_TYPE":0,"NORAD_CAT_ID":69621,"ELEMENT_SET_NO":999,"REV_AT_EPOCH":410,"BSTAR":0.0007320145,"MEAN_MOTION_DOT":0.00027706,"MEAN_MOTION_DDOT":0},{"OBJECT_NAME":"KUIPER-00557","OBJECT_ID":"2026-140AG","EPOCH":"2026-07-05T16:58:37.345152","CLASSIFICATION_TYPE":"U","MEAN_MOTION":15.37376128,"ECCENTRICITY":0.00098584,"INCLINATION":51.8815,"RA_OF_ASC_NODE":309.0991,"ARG_OF_PERICENTER":260.9301,"MEAN_ANOMALY":99.057,"EPHEMERIS_TYPE":0,"NORAD_CAT_ID":69622,"ELEMENT_SET_NO":999,"REV_AT_EPOCH":408,"BSTAR":0.00093264817,"MEAN_MOTION_DOT":0.00034519,"MEAN_MOTION_DDOT":0},{"OBJECT_NAME":"KUIPER-00560","OBJECT_ID":"2026-140AH","EPOCH":"2026-07-05T18:28:52.459104","CLASSIFICATION_TYPE":"U","MEAN_MOTION":15.38722952,"ECCENTRICITY":0.00087176,"INCLINATION":51.8792,"RA_OF_ASC_NODE":308.7645,"ARG_OF_PERICENTER":267.0865,"MEAN_ANOMALY":92.9125,"EPHEMERIS_TYPE":0,"NORAD_CAT_ID":69623,"ELEMENT_SET_NO":999,"REV_AT_EPOCH":409,"BSTAR":0.00059207684,"MEAN_MOTION_DOT":0.00022714,"MEAN_MOTION_DDOT":0},{"OBJECT_NAME":"KUIPER-00561","OBJECT_ID":"2026-140AJ","EPOCH":"2026-07-05T18:31:43.401504","CLASSIFICATION_TYPE":"U","MEAN_MOTION":15.38531824,"ECCENTRICITY":0.00079568,"INCLINATION":51.8825,"RA_OF_ASC_NODE":308.7846,"ARG_OF_PERICENTER":268.7053,"MEAN_ANOMALY":91.3023,"EPHEMERIS_TYPE":0,"NORAD_CAT_ID":69624,"ELEMENT_SET_NO":999,"REV_AT_EPOCH":409,"BSTAR":0.00062315623,"MEAN_MOTION_DOT":0.00023775,"MEAN_MOTION_DDOT":0},{"OBJECT_NAME":"KUIPER-00564","OBJECT_ID":"2026-140AK","EPOCH":"2026-07-05T16:52:52.854528","CLASSIFICATION_TYPE":"U","MEAN_MOTION":15.38853108,"ECCENTRICITY":0.00094374,"INCLINATION":51.8815,"RA_OF_ASC_NODE":309.0731,"ARG_OF_PERICENTER":257.3965,"MEAN_ANOMALY":102.5968,"EPHEMERIS_TYPE":0,"NORAD_CAT_ID":69625,"ELEMENT_SET_NO":999,"REV_AT_EPOCH":408,"BSTAR":0.00079694671,"MEAN_MOTION_DOT":0.00030884,"MEAN_MOTION_DDOT":0},{"OBJECT_NAME":"KUIPER-00567","OBJECT_ID":"2026-140AL","EPOCH":"2026-07-05T18:22:01.769664","CLASSIFICATION_TYPE":"U","MEAN_MOTION":15.38306824,"ECCENTRICITY":0.00128997,"INCLINATION":51.8778,"RA_OF_ASC_NODE":308.7331,"ARG_OF_PERICENTER":232.5718,"MEAN_ANOMALY":127.4096,"EPHEMERIS_TYPE":0,"NORAD_CAT_ID":69626,"ELEMENT_SET_NO":999,"REV_AT_EPOCH":409,"BSTAR":0.00053911791,"MEAN_MOTION_DOT":0.00020387,"MEAN_MOTION_DDOT":0},{"OBJECT_NAME":"KUIPER-00573","OBJECT_ID":"2026-140AM","EPOCH":"2026-07-05T18:36:50.620032","CLASSIFICATION_TYPE":"U","MEAN_MOTION":15.37275666,"ECCENTRICITY":0.00093422,"INCLINATION":51.8789,"RA_OF_ASC_NODE":308.8014,"ARG_OF_PERICENTER":248.1867,"MEAN_ANOMALY":111.8126,"EPHEMERIS_TYPE":0,"NORAD_CAT_ID":69627,"ELEMENT_SET_NO":999,"REV_AT_EPOCH":409,"BSTAR":0.0011308239,"MEAN_MOTION_DOT":0.00041835,"MEAN_MOTION_DDOT":0}]}
